ONEWEB-0317             
1 49103U 21075AE  23308.57034158  .00000322  00000+0  86049-3 0  9997
2 49103  87.9041 180.7111 0001321  76.9896 283.1380 13.12444741109847
ONEWEB-0318             
1 49104U 21075AF  23308.56819455  .00000054  00000+0  10479-3 0  9994
2 49104  87.9173 165.5623 0001966  85.4012 274.7345 13.18686966111228
ONEWEB-0319             
1 49105U 21075AG  23308.74593525  .00000131  00000+0  30548-3 0  9997
2 49105  87.9255 195.7821 0002130  91.6661 268.4715 13.17649087108777
ONEWEB-0323             
1 49106U 21075AH  23308.71329964  .00000558  00000+0  15149-2 0  9991
2 49106  87.9037 180.6714 0001774  83.5949 276.5382 13.12444293110222
ONEWEB-0329             
1 49107U 21075AJ  23308.44852489 -.00000058  00000+0 -18318-3 0  9994
2 49107  87.9257 195.8442 0001630  85.5184 274.6133 13.17647636107722
ONEWEB-0330             
1 49108U 21075AK  23308.60251819  .00008610  00000+0  22134-1 0  9992
2 49108  87.9242 195.8230 0001701 100.2955 259.8369 13.17607794107785
ONEWEB-0292             
1 49186U 21083A   23308.82055691 -.00000275  00000+0 -78841-3 0  9990
2 49186  87.8998 150.3618 0001619  81.9747 278.1566 13.13469929106803
ONEWEB-0303             
1 49187U 21083B   23308.56397995 -.00000007  00000+0 -50432-4 0  9998
2 49187  87.9171 165.5654 0001808  84.5823 275.5516 13.18686919104034
